NORAD_CAT_ID,OBJECT_NAME,OBJECT_TYPE,EPOCH,MEAN_MOTION,ECCENTRICITY,INCLINATION,RA_OF_ASC_NODE,ARG_OF_PERICENTER,MEAN_ANOMALY,BSTAR,MEAN_MOTION_DOT,MEAN_MOTION_DDOT,TLE_LINE0,TLE_LINE1,TLE_LINE2,SEMIMAJOR_AXIS,PERIOD,APOGEE,PERIGEE,DECAYED
52672.0,STARLINK-4073,PAYLOAD,2024-03-21 13:05:57,15.08851107,0.000167,53.216,137.9908,89.1365,270.9819,0.00017278,2.464e-05,0.0,0 STARLINK-4073,1 52672U 22053S   24081.54580372  .00002464  00000-0  17278-3 0  9997,2 52672  53.2160 137.9908 0001670  89.1365 270.9819 15.08851107102201,6917.846,95.437,540.867,538.556,0.0
52672.0,STARLINK-4073,PAYLOAD,2024-03-22 09:45:58,15.08850681,0.0001715,53.2157,134.1248,89.674,270.4448,0.00018625,2.678e-05,0.0,0 STARLINK-4073,1 52672U 22053S   24082.40692296  .00002678  00000-0  18625-3 0  9996,2 52672  53.2157 134.1248 0001715  89.6740 270.4448 15.08850681102338,6917.848,95.437,540.899,538.526,0.0
52672.0,STARLINK-4073,PAYLOAD,2024-03-22 12:56:43,15.08857503,0.0001822,53.2172,133.5255,107.7381,252.381,0.00024423,3.603e-05,0.0,0 STARLINK-4073,1 52672U 22053S   24082.53939641  .00003603  00000-0  24423-3 0  9990,2 52672  53.2172 133.5255 0001822 107.7381 252.3810 15.08857503102778,6917.827,95.436,540.952,538.431,0.0
52672.0,STARLINK-4073,PAYLOAD,2024-03-23 03:15:13,15.08826288,0.0001075,53.2161,130.853,90.0821,270.0295,-0.00022587,-3.879e-05,0.0,0 STARLINK-4073,1 52672U 22053S   24083.13557487 -.00003879  00000-0 -22587-3 0  9997,2 52672  53.2161 130.8530 0001075  90.0821 270.0295 15.08826288102449,6917.922,95.438,540.531,539.044,0.0
52672.0,STARLINK-4073,PAYLOAD,2024-03-23 09:36:46,15.0883186,0.0001681,53.2158,129.6645,99.1672,260.9511,-0.00012623,-2.296e-05,0.0,0 STARLINK-4073,1 52672U 22053S   24083.40053417 -.00002296  00000-0 -12623-3 0  9993,2 52672  53.2158 129.6645 0001681  99.1672 260.9511 15.08831860102480,6917.905,95.438,540.933,538.607,0.0
52672.0,STARLINK-4073,PAYLOAD,2024-03-24 03:05:59,15.08846857,0.0002163,53.2156,126.3899,139.3945,220.7209,1.6668e-05,-2.3e-07,0.0,0 STARLINK-4073,1 52672U 22053S   24084.12916557 -.00000023  00000-0  16668-4 0  9995,2 52672  53.2156 126.3899 0002163 139.3945 220.7209 15.08846857102591,6917.859,95.437,541.221,538.228,0.0
52672.0,STARLINK-4073,PAYLOAD,2024-03-24 09:27:32,15.08859805,0.0001563,53.2152,125.2057,105.3908,254.7257,0.00049486,7.601e-05,0.0,0 STARLINK-4073,1 52672U 22053S   24084.39412390  .00007601  00000-0  49486-3 0  9991,2 52672  53.2152 125.2057 0001563 105.3908 254.7257 15.08859805103055,6917.82,95.436,540.766,538.604,0.0
52672.0,STARLINK-4073,PAYLOAD,2024-03-25 02:56:47,15.08854702,0.0001723,53.2163,121.9341,95.7366,264.3822,0.00063452,9.829e-05,0.0,0 STARLINK-4073,1 52672U 22053S   24085.12277347  .00009829  00000-0  63452-3 0  9997,2 52672  53.2163 121.9341 0001723  95.7366 264.3822 15.08854702102745,6917.835,95.437,540.892,538.509,0.0
52672.0,STARLINK-4073,PAYLOAD,2024-03-25 09:18:20,15.08844142,0.0001302,53.2154,120.7462,91.4075,268.7066,0.00028059,4.181e-05,0.0,0 STARLINK-4073,1 52672U 22053S   24085.38773299  .00004181  00000-0  28059-3 0  9992,2 52672  53.2154 120.7462 0001302  91.4075 268.7066 15.08844142102788,6917.868,95.437,540.633,538.832,0.0
52672.0,STARLINK-4073,PAYLOAD,2024-03-25 18:50:39,15.0883034,0.0001302,53.2157,118.9597,82.2834,277.8306,0.00080706,0.00012576,0.0,0 STARLINK-4073,1 52672U 22053S   24085.78518114  .00012576  00000-0  80706-3 0  9993,2 52672  53.2157 118.9597 0001302  82.2834 277.8306 15.08830340102840,6917.91,95.438,540.676,538.874,0.0
52672.0,STARLINK-4073,PAYLOAD,2024-03-26 02:47:36,15.08821943,0.0001559,53.2167,117.4772,96.1944,263.9226,0.00059168,9.137e-05,0.0,0 STARLINK-4073,1 52672U 22053S   24086.11638956  .00009137  00000-0  59168-3 0  9995,2 52672  53.2167 117.4772 0001559  96.1944 263.9226 15.08821943102891,6917.936,95.439,540.879,538.722,0.0
52672.0,STARLINK-4073,PAYLOAD,2024-03-26 07:33:45,15.08819307,0.0001697,53.2167,116.5838,104.425,255.693,0.00036022,5.446e-05,0.0,0 STARLINK-4073,1 52672U 22053S   24086.31511104  .00005446  00000-0  36022-3 0  9995,2 52672  53.2167 116.5838 0001697 104.4250 255.6930 15.08819307103342,6917.944,95.439,540.983,538.635,0.0
52672.0,STARLINK-4073,PAYLOAD,2024-03-26 18:41:28,15.08825728,0.0001541,53.2164,114.5016,101.5448,258.5717,0.00067479,0.00010463,0.0,0 STARLINK-4073,1 52672U 22053S   24086.77879690  .00010463  00000-0  67479-3 0  9997,2 52672  53.2164 114.5016 0001541 101.5448 258.5717 15.08825728103417,6917.924,95.438,540.855,538.723,0.0
52672.0,STARLINK-4073,PAYLOAD,2024-03-27 08:59:55,15.08856835,0.0001241,53.2148,111.8252,100.4687,259.6445,0.0010755,0.00016878,0.0,0 STARLINK-4073,1 52672U 22053S   24087.37495160  .00016878  00000-0  10755-2 0  9990,2 52672  53.2148 111.8252 0001241 100.4687 259.6445 15.08856835103087,6917.829,95.436,540.552,538.835,0.0
52672.0,STARLINK-4073,PAYLOAD,2024-03-27 18:32:14,15.08860476,0.0001219,53.2145,110.0404,95.3082,264.8049,0.00070894,0.00011019,0.0,0 STARLINK-4073,1 52672U 22053S   24087.77238751  .00011019  00000-0  70894-3 0  9998,2 52672  53.2145 110.0404 0001219  95.3082 264.8049 15.08860476103567,6917.818,95.436,540.526,538.84,0.0
52672.0,STARLINK-4073,PAYLOAD,2024-03-28 10:26:04,15.08868075,0.00013,53.2145,107.0664,94.3607,265.7534,0.00059304,9.17e-05,0.0,0 STARLINK-4073,1 52672U 22053S   24088.43477829  .00009170  00000-0  59304-3 0  9991,2 52672  53.2145 107.0664 0001300  94.3607 265.7534 15.08868075103667,6917.795,95.436,540.559,538.76,0.0
52672.0,STARLINK-4073,PAYLOAD,2024-03-28 18:23:00,15.08854538,0.0001603,53.2162,105.5783,84.4502,275.6673,0.00018222,2.614e-05,0.0,0 STARLINK-4073,1 52672U 22053S   24088.76597930  .00002614  00000-0  18222-3 0  9993,2 52672  53.2162 105.5783 0001603  84.4502 275.6673 15.08854538103293,6917.836,95.437,540.81,538.592,0.0
52672.0,STARLINK-4073,PAYLOAD,2024-03-29 08:41:27,15.08879302,0.0001407,53.2151,102.9027,81.1812,278.9339,0.00089255,0.00013961,0.0,0 STARLINK-4073,1 52672U 22053S   24089.36212809  .00013961  00000-0  89255-3 0  9990,2 52672  53.2151 102.9027 0001407  81.1812 278.9339 15.08879302103384,6917.76,95.435,540.599,538.652,0.0
52672.0,STARLINK-4073,PAYLOAD,2024-03-29 18:13:46,15.08865062,0.0001361,53.216,101.1175,89.8252,270.2896,0.00044665,6.832e-05,0.0,0 STARLINK-4073,1 52672U 22053S   24089.75956656  .00006832  00000-0  44665-3 0  9993,2 52672  53.2160 101.1175 0001361  89.8252 270.2896 15.08865062103449,6917.804,95.436,540.61,538.727,0.0
52672.0,STARLINK-4073,PAYLOAD,2024-03-30 00:35:19,15.08840965,0.0001435,53.2155,99.9288,86.718,273.3976,-0.00025447,-4.336e-05,0.0,0 STARLINK-4073,1 52672U 22053S   24090.02452982 -.00004336  00000-0 -25447-3 0  9994,2 52672  53.2155  99.9288 0001435  86.7180 273.3976 15.08840965103482,6917.877,95.437,540.735,538.75,0.0
52672.0,STARLINK-4073,PAYLOAD,2024-03-30 06:56:51,15.0884688,0.0001532,53.2157,98.739,94.3713,265.7454,-2.3273e-06,-3.25e-06,0.0,0 STARLINK-4073,1 52672U 22053S   24090.28948947 -.00000325  00000-0 -23273-5 0  9994,2 52672  53.2157  98.7390 0001532  94.3713 265.7454 15.08846880103949,6917.859,95.437,540.784,538.665,0.0
52672.0,STARLINK-4073,PAYLOAD,2024-03-30 18:04:34,15.08834661,0.0001296,53.2143,96.6588,87.4781,272.6359,-0.00011429,-2.106e-05,0.0,0 STARLINK-4073,1 52672U 22053S   24090.75317408 -.00002106  00000-0 -11429-3 0  9995,2 52672  53.2143  96.6588 0001296  87.4781 272.6359 15.08834661104019,6917.897,95.438,540.658,538.865,0.0
52672.0,STARLINK-4073,PAYLOAD,2024-03-31 05:12:16,15.08833341,0.0001427,53.2149,94.577,88.6034,271.5121,-3.3679e-05,-8.24e-06,0.0,0 STARLINK-4073,1 52672U 22053S   24091.21685934 -.00000824  00000-0 -33679-4 0  9996,2 52672  53.2149  94.5770 0001427  88.6034 271.5121 15.08833341103664,6917.901,95.438,540.753,538.779,0.0
52672.0,STARLINK-4073,PAYLOAD,2024-03-31 09:58:25,15.08840617,0.0001369,53.2153,93.6841,92.5452,267.5697,-8.3828e-05,-1.622e-05,0.0,0 STARLINK-4073,1 52672U 22053S   24091.41557728 -.00001622  00000-0 -83828-4 0  9995,2 52672  53.2153  93.6841 0001369  92.5452 267.5697 15.08840617104119,6917.879,95.438,540.691,538.796,0.0
52672.0,STARLINK-4073,PAYLOAD,2024-04-01 06:38:26,15.08840188,0.0001338,53.2155,89.8189,93.1322,266.9823,0.00025046,3.7e-05,0.0,0 STARLINK-4073,1 52672U 22053S   24092.27670087  .00003700  00000-0  25046-3 0  9998,2 52672  53.2155  89.8189 0001338  93.1322 266.9823 15.08840188103826,6917.88,95.438,540.67,538.819,0.0
52672.0,STARLINK-4073,PAYLOAD,2024-04-02 03:18:27,15.0884026,0.0001316,53.216,85.9536,92.3163,267.798,0.00020204,2.929e-05,0.0,0 STARLINK-4073,1 52672U 22053S   24093.13782397  .00002929  00000-0  20204-3 0  9995,2 52672  53.2160  85.9536 0001316  92.3163 267.7980 15.08840260103953,6917.88,95.438,540.655,538.834,0.0
52672.0,STARLINK-4073,PAYLOAD,2024-04-02 06:29:14,15.0884205,0.0001318,53.216,85.3586,92.8294,267.2849,0.00021309,3.105e-05,0.0,0 STARLINK-4073,1 52672U 22053S   24093.27030330  .00003105  00000-0  21309-3 0  9997,2 52672  53.2160  85.3586 0001318  92.8294 267.2849 15.08842050104391,6917.874,95.437,540.651,538.827,0.0
52672.0,STARLINK-4073,PAYLOAD,2024-04-02 16:01:32,15.0884219,0.0001289,53.2164,83.5748,92.1252,267.9888,0.00012355,1.679e-05,0.0,0 STARLINK-4073,1 52672U 22053S   24093.66774255  .00001679  00000-0  12355-3 0  9996,2 52672  53.2164  83.5748 0001289  92.1252 267.9888 15.08842190104451,6917.874,95.437,540.63,538.847,0.0
52672.0,STARLINK-4073,PAYLOAD,2024-04-03 03:09:15,15.08833491,0.000136,53.2171,81.4933,93.0778,267.0369,-8.0272e-05,-1.565e-05,0.0,0 STARLINK-4073,1 52672U 22053S   24094.13142646 -.00001565  00000-0 -80272-4 0  9992,2 52672  53.2171  81.4933 0001360  93.0778 267.0369 15.08833491104106,6917.9,95.438,540.706,538.824,0.0
52672.0,STARLINK-4073,PAYLOAD,2024-04-03 09:30:47,15.08835813,0.000142,53.2173,80.3037,95.5352,264.5802,-8.8802e-07,-3.02e-06,0.0,0 STARLINK-4073,1 52672U 22053S   24094.39638720 -.00000302  00000-0 -88802-6 0  9990,2 52672  53.2173  80.3037 0001420  95.5352 264.5802 15.08835813104567,6917.893,95.438,540.741,538.776,0.0
